location,address,city,zip_code,lat,lon,category,state,info
Erwin-Oehler House Acreage,14401 Huntersville-Concord Rd,Huntersville,,35.4168189,-80.804446,historic,NC,Land
McLaughlin-Bost House,415 W John St,Matthews,,35.1185515,-80.7270503,historic,NC,19th Century Vernacular
Park Avenue Mill Village,411 Park Ave,Pineville,,35.0815703,-80.8936154,historic,NC,Mill Village
Hamilton Jones House,201 Cherokee Rd,Charlotte,,35.2016519,-80.8212345,historic,NC,Tudor Revival
Pineville Commercial Block,318 Main St,Pineville,,35.0858685,-80.8906765,historic,NC,Commercial
W.D. Beaty House,2400 Park Ln,Charlotte,,35.251844,-80.948175,historic,NC,Victorian
John Hunter House,5607 Sardis Rd,Charlotte,,35.162133,-80.784307,historic,NC,Greek Revival
Mint Museum of Art,2730 Randolph Rd,Charlotte,,35.1973424,-80.8146806,historic,NC,Federal
Randolph Scott House,1301 Dilworth Rd,Charlotte,,35.2099933,-80.8438767,historic,NC,Colonial Revival
Hoskins Mill,201 S Hoskins Rd,Charlotte,,35.2638694,-80.8859437,historic,NC,Cotton Mill
Big Rock Rock Shelter,6500 Elmstone Dr,Charlotte,,35.061696,-80.826982,historic,NC,Exposed Boulders
Tompkins Machine Shop,1900 South Blvd,Charlotte,,35.2109954,-80.8592995,historic,NC,Industrial
McCausland Building-Thacker's Restaurant,221 S Tryon St,Charlotte,,35.2259534,-80.8446717,historic,NC,Commercial
Providence Presbyterian Church,10140 Providence Church Ln,Charlotte,,35.0718152,-80.7726629,historic,NC,Federal
Jones-Garibald House,228 E Park Ave,Charlotte,,35.2127163,-80.8547955,historic,NC,Neoclassical
Torrance House & Store,8231 Gilead Rd,Huntersville,,35.4072248,-80.8863543,historic,NC,Federal
Crutchfield-Bomar-Brem House,307 East Blvd,Charlotte,,35.2108956,-80.8560495,historic,NC,Queen Anne
McCausland Building-Thacker's Restaurant,221 S Tryon St,Charlotte,,35.2259534,-80.8446717,historic,NC,Commercial
Providence Women's Club Community House,9735 Community House Rd,Charlotte,,35.036843,-80.8278094,historic,NC,Log
Thrift Depot of the Piedmont & Northern Railroad Company,8030 Old Mt Holly Rd,Charlotte,,35.276944,-80.939734,historic,NC,19th Century Train Station
Morgan School,510 S Torrence St,Charlotte,,35.2101413,-80.8334971,historic,NC,Beaux Arts
Wadsworth House,400 S Summit Ave,Charlotte,,35.2332763,-80.8609786,historic,NC,Bungalow
Ratcliffe-Otterbourg House,2100 Randolph Rd,Charlotte,,35.2072553,-80.8215805,historic,NC,Bungalow
Smithville Rosenwald School,19412 South Hill St,Cornelius,,35.4803883,-80.8717221,historic,NC,Vernacular
Dinkins Property Cemetery,10600 Nations Ford Rd,Charlotte,,35.1179777,-80.906904,historic,NC,Cemetery
Stratton House,923 W Fourth St Ext,Charlotte,,35.2326797,-80.8539275,historic,NC,Land
Leeper & Wyatt Store ,1923 South Blvd,Charlotte,,35.2100379,-80.8593356,historic,NC,Commercial
Rural Hill Plantation,4020 Neck Rd,Charlotte,,35.381546,-80.9520749,historic,NC,Vernacular
Holt-Henderson-Copeland House,305 N Main St,Davidson,,35.5009264,-80.8480498,historic,NC,Victorian Italianate
Robinson House,8716 Steele Creek Rd,Charlotte,,35.169252,-80.964521,historic,NC,Vernacular
Charlotte Fire Station # 4,420 W Fifth St,Charlotte,,35.23128,-80.8453255,historic,NC,1920s Fire Station
Rogers House,524 East Blvd,Charlotte,,35.2082886,-80.8536713,historic,NC,Dutch Colonial
Neel House,5517 Samuel Neel Rd,Charlotte,,35.148086,-80.999814,historic,NC,Federal
Falls Store,300 Mock Rd,Davidson,,35.4997501,-80.8530767,historic,NC,1950s Commercial
Heath & Reid General Store,196 S Trade St,Matthews,,35.1145429,-80.7242352,historic,NC,Commercial
Park Avenue Mill Village,425 Park Ave,Pineville,,35.082306,-80.8950308,historic,NC,Mill Village
Blythe Homestead,16001 Beatties Ford Rd,Charlotte,,35.428827,-80.921331,historic,NC,Federal (altered)
Park Avenue Mill Village,424 Park Ave,Pineville,,35.0826816,-80.8947823,historic,NC,Mill Village
Frederick Apartments,515 N Church St,Charlotte,,35.2318842,-80.8395521,historic,NC,Italian Renaissance
Charlotte City Hall,600 E Trade St,Charlotte,,35.2220747,-80.8381681,historic,NC,Beaux Arts
Holly Bend,3701 Neck Rd,Charlotte,,35.38286,-80.957026,historic,NC,Federal
Query-Spivey-McGee Building,600 S College St,Charlotte,,35.2223914,-80.8479417,historic,NC,Commercial
Wing Haven ,260 Ridgewood Ave,Charlotte,,35.179162,-80.8413036,historic,NC,Colonial Revival
Thies Building,113 E Eighth St,Charlotte,,35.2299251,-80.8380572,historic,NC,Land
Yandell Hotel & Grocery Store,331 Main St,Pineville,,35.085623,-80.891169,historic,NC,Commercial
Agricultural Building (Long Creek),9213 Beatties Ford Rd,Huntersville,,35.3508363,-80.8894366,historic,NC,Eclectic
Davidson Colored School/Ada Jenkins School,212 Gamble St,Davidson,,35.4989337,-80.8537586,historic,NC,20th Century School 
McAuley Road Farmland,15425 McAuley Rd,Huntersville,,35.4252651,-80.7820938,historic,NC,Farmland
Louise Cotton Mill,1101 Hawthorne Ln,Charlotte,,35.2250319,-80.8183365,historic,NC,Textile Mill
City House,500 E Kingston Ave,Charlotte,,35.2098736,-80.8532389,historic,NC,Queen Anne
Funderburk-Plaxco House,316 E Matthews St,Matthews,,35.1170175,-80.7187347,historic,NC,Italianate
Nebel Knitting Mill Annex,127 W Worthington Ave,Charlotte,,35.2117507,-80.8608705,historic,NC,Art Moderne
Delburg Cotton Mill House,303 Delburg St,Davidson,,35.5041191,-80.849866,historic,NC,Mill Village
Rural Hill Plantation Expansion,4598 Neck Rd,Charlotte,,35.380953,-80.944877,historic,NC,Land
Torrance Mill,7828 Gilead Rd,Huntersville,,35.4061477,-80.895128,historic,NC,Grist/Saw Mill
Craig House,900 Ardsley Rd,Charlotte,,35.2014488,-80.8300369,historic,NC,Tudor Revival
Coco Cola Company Bottling Plant,1401 W Morehead St,Charlotte,,35.2286536,-80.8642861,historic,NC,Art Deco
Gateway & Century Building,402 W Trade St,Charlotte,,35.2298887,-80.8457795,historic,NC,Neoclassical
Mallonee-Jones House,400 E Kingston Ave,Charlotte,,35.2106859,-80.8544064,historic,NC,Queen Anne
Bank of Huntersville (former),100 Main St,Huntersville,,35.410837,-80.8410873,historic,NC,Commercial
Shotgun House A,711 E Seventh St,Charlotte,,35.2243523,-80.8336554,historic,NC,Shotgun
Cedar Grove Land,8315 Gilead Rd,Huntersville,,35.4084229,-80.883031,historic,NC,Land
Park Avenue Mill Village,412 Park Ave,Pineville,,35.0819967,-80.8936154,historic,NC,Mill Village
Cedar Grove Land,8200 Gilead Rd,Huntersville,,35.406148,-80.889106,historic,NC,Land
Independence Park,300 Hawthorne Ln,Charlotte,,35.214054,-80.8233757,historic,NC,Park
Star of St. Matthews Lodge #566,124 Morris Rd,Matthews,,35.1093385,-80.7109115,historic,NC,Concrete Masonry Unit
Lyles-Sims House,523 N Poplar St,Charlotte,,35.2326584,-80.8401951,historic,NC,Queen Anne
Grinnell/General Fire Extinguisher Company,1501 W Morehead St,Charlotte,,35.228775,-80.865576,historic,NC,Commercial/Industrial
Mecklenburg Mill,3327 N Davidson St,Charlotte,,35.2493528,-80.8023935,historic,NC,Vernacular
Matthews Post Office (former),195 N Trade St,Matthews,,35.1169983,-80.7218099,historic,NC,Neoclassical
Ziem House,1812 E Eighth St,Charlotte,,35.2151101,-80.8196339,historic,NC,Foursquare
Erwin-Oehler House Acreage,14401 Huntersville-Concord Rd,Huntersville,,35.4168189,-80.804446,historic,NC,Land
Bagley-Mullen House,129 N Poplar St,Charlotte,,35.2298359,-80.8442443,historic,NC,Queen Anne
Sloan-Davidson House,314 W Eighth St,Charlotte,,35.2324853,-80.8410897,historic,NC,Victorian
St. Mark's Episcopal Church,8600 Mt Holly-Huntersville Rd,Charlotte,,35.3479401,-80.8808207,historic,NC,Gothic Revival
Bradford Farm,15908 Davidson-Concord Rd,Huntersville,,35.4425178,-80.7737017,historic,NC,Queen Anne I
Restormel,829 Concord Rd,Davidson,,35.493675,-80.834408,historic,NC,Colonial Revival
Long Creek Mill Ruin,8604 Beatties Ford Rd,Charlotte,,35.345722,-80.882087,historic,NC,Mill Ruin
Thrift Mill,8300 Moore's Chapel Rd,Charlotte,,35.277188,-80.944716,historic,NC,Cotton Mill
Pineville Commercial Block,320 Main St,Pineville,,35.085957,-80.8907197,historic,NC,Commercial
McManaway House,1700 Queens Rd,Charlotte,,35.1920586,-80.829453,historic,NC,Italianate
Standard Oil Company of New Jersey Filling Station,1010 N Tryon St,Charlotte,,35.2347136,-80.8322644,historic,NC,Craftsman
W.P.A. Douglas Airport Hangar,4108 Minuteman Way,Charlotte,,35.225001,-80.933704,historic,NC,Art Deco
Red Front Department Store,1125 Belmont Ave,Charlotte,,35.226652,-80.819294,historic,NC,20th Century Commercial
Hand Pharmacy Building,3201 N Davidson St,Charlotte,,35.2471884,-80.8058116,historic,NC,Vernacular
Neely Slave Cemetery,13501 South Ridge Dr,Charlotte,,35.1107399,-80.9598206,historic,NC,Cemetery (slave)
Myers Park Streetcar Waiting Station,101 Hermitage Rd,Charlotte,,35.2057483,-80.8286312,historic,NC,Bungalow
Oakley House,129 Main St,Pineville,,35.0848693,-80.8881696,historic,NC,Craftsman
Cedar Grove House,8229 Gilead Rd,Huntersville,,35.4072152,-80.8876294,historic,NC,Greek Revival
Ingleside,7725 Bud Henderson Rd,Charlotte,,35.4048836,-80.9095579,historic,NC,Italianate
Treloar. William House,328 E Seventh St,Charlotte,,35.226658,-80.836748,historic,NC,Renaissance Revival
Newcombe-McElwee House,2817 Belvedere Ave,Charlotte,,35.227721,-80.795922,historic,NC,Tudor Revival
Croft School,9200 Bob Beatty Rd,Huntersville,,35.3470276,-80.8227052,historic,NC,Vernacular
Park Avenue Mill Village,409 Park Ave,Pineville,,35.081472,-80.8934425,historic,NC,Mill Village
Joseph Sykes Brothers Building,1445 S Mint St,Charlotte,,35.2191447,-80.8601354,historic,NC,Commercial
Park Avenue Mill Village,421 Park Ave,Pineville,,35.0820716,-80.8946094,historic,NC,Mill Village
Davidson School,251 South St,Davidson,,35.4961266,-80.8488066,historic,NC,Modern
Pineville Commercial Block,312 Main St,Pineville,,35.085849,-80.8904171,historic,NC,Commercial
Carnegie Library Building (old) (JCSU Campus),160 Beatties Ford Rd,Charlotte,,35.243604,-80.856864,historic,NC,Neoclassical
Addison Apartment Building,831 E Morehead St,Charlotte,,35.2143225,-80.844547,historic,NC,Neoclassical 
Trolley Walk,2100 E Seventh St,Charlotte,,35.2112057,-80.8169951,historic,NC,Walk
Scott-Hoke House,1717 Cleveland Ave,Charlotte,,35.2112231,-80.8558765,historic,NC,Queen Anne
Charlotte Coliseum,2700 E Independence Blvd,Charlotte,,35.205058,-80.7951951,historic,NC,Modern
Carolina Cadillac Company,1310 S Tryon St,Charlotte,,35.2183846,-80.8546009,historic,NC,Classical Revival
Grand Theater,333 Beatties Ford Rd,Charlotte,,35.2455718,-80.8572818,historic,NC,20th Century Commercial
Latta Arcade,316 S Tryon St,Charlotte,,35.2253511,-80.8461491,historic,NC,Beaux Arts
Bradford Store,15908 Davidson-Concord Rd,Huntersville,,35.4425178,-80.7737017,historic,NC,Rural Vernacular
Hayes-Byrum Store & House,8510 Steele Creek Rd,Charlotte,,35.1707888,-80.9597429,historic,NC,Vernacular
Thies Building,500 N Tryon St,Charlotte,,35.2300897,-80.8383411,historic,NC,Commercial
First United Presbyterian Church,201 E Seventh St,Charlotte,,35.2285772,-80.8383195,historic,NC,Gothic Revival
Steele Creek Presbyterian Church,7407 Steele Creek Rd,Charlotte,,35.1831633,-80.955094,historic,NC,Gothic Revival
Carter Hall (JCSU Campus),160 Beatties Ford Rd,Charlotte,,35.243604,-80.856864,historic,NC,Gothic Revival
Harrill-Porter House,329 E Kingston Ave,Charlotte,,35.2112295,-80.8542766,historic,NC,Vernacular
Matthews School,100 E McDowell St,Matthews,,35.1131116,-80.7224351,historic,NC,Colonial Revival
McQuay House,3200 Tuckaseegee Rd,Charlotte,,35.2437491,-80.8806919,historic,NC,Vernacular Colonial Revival
Mecklenburg County Courthouse,700 E Trade St,Charlotte,,35.2213738,-80.8373464,historic,NC,Neoclassical
Providence Women's Club Community House (land),9735 Community House Rd,Charlotte,,35.036843,-80.8278094,historic,NC,Land
Park Avenue Mill Village,415 Park Ave,Pineville,,35.0817735,-80.8940476,historic,NC,Mill Village
Charlotte Fire Station # 7,3210 N Davidson St,Charlotte,,35.2470734,-80.8051409,historic,NC,Storefront Style
Atherton Mill House,2005 Cleveland Ave,Charlotte,,35.2086296,-80.8587302,historic,NC,Mill House
McCausland Building-Thacker's Restaurant,221 S Tryon St,Charlotte,,35.2259534,-80.8446717,historic,NC,Commercial
Builders Building,312 W Trade St,Charlotte,,35.2295153,-80.8453471,historic,NC,Commercial
McAuley Road Farmland,16101 McAuley Rd,Huntersville,,35.430402,-80.782185,historic,NC,Farmland
Crowell-Berryhill Store,401 W Ninth St,Charlotte,,35.2336176,-80.8407881,historic,NC,Commercial
Carolina Transfer & Storage Company Building,1230 W Morehead St,Charlotte,,35.2292824,-80.8619802,historic,NC,Industrial
Golden House (Moore-Golden),1701 E Eighth St,Charlotte,,35.2166593,-80.8206937,historic,NC,Bungalow
Mayer House,311 East Blvd,Charlotte,,35.2107515,-80.8558333,historic,NC,Victorian
Grier-Rea House,6701 Providence Rd,Charlotte,,35.1169523,-80.7784843,historic,NC,Federal
First National Bank Building,112 S Tryon St,Charlotte,,35.227144,-80.8439222,historic,NC,Bank Commercial
Park Avenue Mill Village,408 Park Ave,Pineville,,35.0817936,-80.8931832,historic,NC,Mill Village
Independence Park,300 Hawthorne Ln,Charlotte,,35.214054,-80.8233757,historic,NC,Park
Park Avenue Mill Village,427 Park Ave,Pineville,,35.0824157,-80.8952145,historic,NC,Mill Village
Grinnell/General Fire Extinguisher Company,1435 W Morehead St,Charlotte,,35.2281115,-80.8644538,historic,NC,Commercial/Industrial
Goff House,1116 Queens Rd,Charlotte,,35.199733,-80.8312696,historic,NC,Colonial Revival
Big Rock Rock Shelter,6500 Elmstone Dr,Charlotte,,35.061696,-80.826982,historic,NC,Exposed Boulders
Independence Park,300 Hawthorne Ln,Charlotte,,35.214054,-80.8233757,historic,NC,Park
Thies House,600 Ardsley Rd,Charlotte,,35.2019647,-80.825625,historic,NC,Colonial Revival
Nebel Knitting Mill,101 W Worthington Ave,Charlotte,,35.2114756,-80.860049,historic,NC,Cotton Mill
Villalonga-Alexander House,301 E Park Ave,Charlotte,,35.2128046,-80.8539956,historic,NC,Colonial Revival
Henderson-King House,4723 Stafford Cir,Charlotte,,35.1767986,-80.790126,historic,NC,Queen Anne
Park Avenue Mill Village,426 Park Ave,Pineville,,35.0827291,-80.8949876,historic,NC,Mill Village
Grier-Furr House,500 W John St,Matthews,,35.1194136,-80.7271803,historic,NC,Vernacular
Park Avenue Mill Village,414 Park Ave,Pineville,,35.0821409,-80.8938315,historic,NC,Mill Village
Park Avenue Mill Village,416 Park Ave,Pineville,,35.0822425,-80.8940476,historic,NC,Mill Village
Erwin-Oehler House,14401 Huntersville-Concord Rd,Huntersville,,35.4168189,-80.804446,historic,NC,Federal
Lambeth-Gosset House,923 Granville Rd,Charlotte,,35.1987557,-80.8270957,historic,NC,Bungalow
St. Peter's Hospital,229 N Poplar St,Charlotte,,35.2307,-80.8432929,historic,NC,Classical Revival
Cohen-Fumaro House,1154 Cedarwood Ln,Charlotte,,35.1948253,-80.7547197,historic,NC,Modern
Pineville Commercial Block (including interior),316 Main St,Pineville,,35.0859046,-80.89059,historic,NC,Commercial
Agricultural Building (Huntersville),200 Gilead Rd,Huntersville,,35.410907,-80.846714,historic,NC,Eclectic
Caldwell Station School,17616 Caldwell Station School Rd,Huntersville,,35.4514375,-80.8421365,historic,NC,Schoolhouse Vernacular
North Carolina Medical College Building,229 N Church St,Charlotte,,35.2297569,-80.8423631,historic,NC,Classical Revival
Mabonsie,312 S Thompson St,Davidson,,35.4934335,-80.8432497,historic,NC,Rustic Log Cabin
Electric Supply & Equipment Company Building,501 Penman St,Charlotte,,35.2219849,-80.8584039,historic,NC,Mill Style
Flow-Lee House,4122 Hoodridge Ln,Charlotte,,35.1649225,-80.6644456,historic,NC,Vernacular
Pineville Commercial Block,324 Main St,Pineville,,35.085957,-80.8908601,historic,NC,Commercial
Osborne House,12445 Ramah Church Rd,Huntersville,,35.4244685,-80.8274417,historic,NC,Vernacular
Huntersville Town Jail,301 Huntersville-Concord Rd,Huntersville,,35.4112515,-80.8403954,historic,NC,Municipal Building
Park Avenue Mill Village,410 Park Ave,Pineville,,35.0818951,-80.8933993,historic,NC,Mill Village
McElroy House,10915 Beatties Ford Rd,Huntersville,,35.369784,-80.902322,historic,NC,Victorian
Mayfair Manor (Dunhill Hotel),237 N Tryon St,Charlotte,,35.228915,-80.84119,historic,NC,Skyscraper
Parks-Cramer Company Complex,2000 South Blvd,Charlotte,,35.20955,-80.8604813,historic,NC,Textile Industrial
Woodlawn Avenue Duplex,210 S Irwin Ave,Charlotte,,35.23351,-80.854333,historic,NC,Vernacular Mission
Parks Hutchinson School,1400 N Graham St,Charlotte,,35.2416574,-80.8337566,historic,NC,Neoclassical
Hermitage Court Gateways,400 Hermitage Ct,Charlotte,,35.2051703,-80.8244646,historic,NC,Bungalow
Grinnell/General Fire Extinguisher Company,1431 W Morehead St,Charlotte,,35.2287588,-80.8653627,historic,NC,Commercial/Industrial
Liddel-McNinch House,511 N Church St,Charlotte,,35.2316495,-80.8396303,historic,NC,Queen Anne
Elm & Oak Row (Davidson College Campus),405 N Main St,Davidson,,35.502236,-80.847517,historic,NC,Federal
Helms-Bell House,2021 Euclid Ave,Charlotte,,35.207276,-80.857905,historic,NC,Queen Anne
Johnston Building,212 S Tryon St,Charlotte,,35.2263394,-80.8450011,historic,NC,Skyscraper
Pineville Commercial Block,328 Main St,Pineville,,35.0858927,-80.8909634,historic,NC,Commercial
Independence Park,300 Hawthorne Ln,Charlotte,,35.214054,-80.8233757,historic,NC,Park
Stratton House,911 W Fourth St Ext,Charlotte,,35.2326927,-80.8538442,historic,NC,Tudor Revival
Hopewell Presbyterian Church,10500 Beatties Ford Rd,Charlotte,,35.3662879,-80.8978887,historic,NC,Federal
Hoyle House,11511 Smith Rd,Cornelius,,35.4766624,-80.8506228,historic,NC,Foursquare
Providence Women's Club Community House (land),9735 Community House Rd,Charlotte,,35.036843,-80.8278094,historic,NC,Land
Stone Entry Gates (JCSU Campus),100 Beatties Ford Rd,Charlotte,,35.243588,-80.8569359,historic,NC,Bungalow
Potts Place,11901 Smith Rd,Cornelius,,35.4774546,-80.8443092,historic,NC,Log (altered)
Wing Haven ,248 Ridgewood Ave,Charlotte,,35.1790014,-80.8408711,historic,NC,Colonial Revival
Charlotte Fire Station # 2,1212 South Blvd,Charlotte,,35.2169631,-80.8518552,historic,NC,Classical Revival
Long Creek Mill Ruin,8508 Beatties Ford Rd,Charlotte,,35.345707,-80.880215,historic,NC,Mill Ruin
Gautier-Gilchrist House,320 E Park Ave,Charlotte,,35.2120547,-80.8539307,historic,NC,Colonial Revival
Funderburk Brothers Building,157 N Trade St,Matthews,,35.1165629,-80.722243,historic,NC,Commercial
Davidson Cotton Mill,209 Delburg St,Davidson,,35.5038998,-80.8489363,historic,NC,Cotton Mill
Arthur Smith Studios,5457 Monroe Rd,Charlotte,,35.1891977,-80.7707367,historic,NC,Modern Recording Studio
Berryhill House,324 W Ninth St,Charlotte,,35.2336649,-80.8402676,historic,NC,Victorian Italianate
Philip Carey Building,301 E Seventh St,Charlotte,,35.2277354,-80.8373248,historic,NC,Commercial
Home Federal Savings & Loan,139 S Tryon St,Charlotte,,35.2262475,-80.8437902,historic,NC,Modernist
Carolina Theatre (old),230 N Tryon St,Charlotte,,35.2283029,-80.8406229,historic,NC,Mediterranean
Duke Mansion (Lynnwood),400 Hermitage Rd,Charlotte,,35.2015003,-80.8273552,historic,NC,Colonial Revival
McAuley Road Farmland,15832 McAuley Rd,Huntersville,,35.430848,-80.779901,historic,NC,Farmland
Renfrow Hardware Store,188 N Trade St,Matthews,,35.116444,-80.7215283,historic,NC,Commercial
Unity Church Cabin/Lingle Hut,219 Watson St,Davidson,,35.5017039,-80.85103,historic,NC,Depression-Era
Robinson Rock House Ruin,9763 Plaza Rd Ext,Newell,,35.263912,-80.707594,historic,NC,Pioneer Rock Ruin
Charlotte Fire Station # 6,249 S Laurel Ave,Charlotte,,35.2026446,-80.822251,historic,NC,Bungalow
First Baptist Church (Spirit Square),318 N Tryon St,Charlotte,,35.229039,-80.839981,historic,NC,Byzantine Revival
Biddle Hall (JCSU Campus),160 Beatties Ford Rd,Charlotte,,35.243604,-80.856864,historic,NC,Romanesque Revival
Torrence-Lytle School,302 Holbrooks Rd,Huntersville,,35.4000847,-80.8262599,historic,NC,Vernacular
Park Avenue Mill Village,413 Park Ave,Pineville,,35.0816751,-80.8938747,historic,NC,Mill Village
Mecklenburg Investment Company Building,229 S Brevard St,Charlotte,,35.2230253,-80.8419955,historic,NC,Commercial
Funderburk Brothers Blacksmith Shop & Grist Mill,130 Library Ln,Matthews,,35.1168711,-80.7223729,historic,NC,Commercial
Morrocroft,3550 Governor's Ln,Charlotte,,35.1597409,-80.822902,historic,NC,Tudor Revival
Palmer Fire School,2601 E Seventh St,Charlotte,,35.205523,-80.808742,historic,NC,Vernacular
Mt. Zion Methodist Church Parsonage,19631 S Main St,Cornelius,,35.47691,-80.8552712,historic,NC,Victorian
Midwood Elementary School,1817 Central Ave,Charlotte,,35.2206938,-80.8088401,historic,NC,Traditional Revival
McClintock Rosenwald School,14008 Erwin Rd,Charlotte,,35.11709,-80.978129,historic,NC,Vernacular
Grace A.M.E. Zion Church,219 S Brevard St,Charlotte,,35.2231038,-80.8416279,historic,NC,Gothic Revival
Rosedale,3427 N Tryon St,Charlotte,,35.25479,-80.805716,historic,NC,Federal
Park Avenue Mill Village,417 Park Ave,Pineville,,35.0819209,-80.8943069,historic,NC,Mill Village
McIntyre Historic Site,5801 Beatties Ford Rd,Charlotte,,35.312376,-80.864174,historic,NC,Log (ruin)
Ratcliffe Florist Shop,431 S Tryon St,Charlotte,,35.224118,-80.847178,historic,NC,Mediterranean
St. Lloyd Presbyterian Church Cemetery,Colony Rd & Sharon Township Ln,Charlotte,,35.1575889,-80.8274623,historic,NC,Graveyard/Cemetery
Massey-Clark House,232 N Trade St,Matthews,,35.1177075,-80.7204029,historic,NC,Vernacular
R.F. Outen Pottery Land,430 Jefferson St,Matthews,,35.1151023,-80.7290208,historic,NC,Land
Sloan-Porter House,10124 Walkers Ferry Rd,Charlotte,,35.21682,-80.985283,historic,NC,Log Cabin/Farmhouse
Renfrow-Lemmond House,344 W John St,Matthews,,35.1183431,-80.7254479,historic,NC,Craftsman
Armature Winding Company Complex,1001 W First St,Charlotte,,35.2302834,-80.8565899,historic,NC,20th Century Industrial
Charlotte Cotton Mills,508 W Fifth St,Charlotte,,35.2319447,-80.8459525,historic,NC,Vernacular
Forbis-Venn House,5607 Matthews-Mint Hill Rd,Charlotte,,35.161186,-80.6703615,historic,NC,Federal
Welch-McIntosh House,3301 Gibbon Rd,Charlotte,,35.3016182,-80.8111764,historic,NC,Queen Anne
Newell Rosenwald School,1204 Torrence Grove Church Rd,Newell,,35.2791471,-80.7434626,historic,NC,Vernacular
Sugaw Creek Schoolhouse,101 W Sugar Creek Rd,Charlotte,,35.2590999,-80.795857,historic,NC,Federal
Johnston Mill,3315 N Davidson St,Charlotte,,35.2487718,-80.8040296,historic,NC,Cotton Mill
Southern Power Company Transformer House,210 Delburg St,Davidson,,35.5041996,-80.8484174,historic,NC,Romanesque Revival
VanLandingham Estate,2010 The Plaza,Charlotte,,35.229461,-80.807743,historic,NC,Bungalow
Hawthorne Lane United Methodist Church,501 Hawthorne Ln,Charlotte,,35.2173079,-80.8213859,historic,NC,Gothic Revival
Hovis-Spratt House,1405 Hawfield Rd,Charlotte,,35.2695481,-80.9911866,historic,NC,Federal
John B. Ross & Company Mill,1000 NC Music Factory Blvd,Charlotte,,35.239118,-80.8460599,historic,NC,Textile Mill
Advent Christian Church,831 E Morehead St,Charlotte,,35.2143225,-80.844547,historic,NC,Gothic Revival
Helper Hotel (Carolina Inn),215 N Main St,Davidson,,35.5004828,-80.8483525,historic,NC,Greek Revival
Eastover Elementary School,500 Cherokee Rd,Charlotte,,35.196573,-80.821349,historic,NC,Colonial Revival
Rural Hill Plantation Expansion,4100 Neck Rd,Charlotte,,35.3831149,-80.948505,historic,NC,Land
Hennigan Place,3503 Tilley Morris Rd,Charlotte,,35.0564866,-80.7481388,historic,NC,Greek Revival
Crane Company Building,1307 W Morehead St,Charlotte,,35.2287104,-80.8626302,historic,NC,Industrial Warehouse
Eastover Elementary School,Cherokee Rd & Cherokee Pl,Charlotte,,35.1971777,-80.8209212,historic,NC,Land
Thompson Orphanage Chapel,1129 E Third St,Charlotte,,35.216187,-80.833153,historic,NC,Gothic Revival
Hovis Funeral Home,516 N Tryon St,Charlotte,,35.2304898,-80.8379632,historic,NC,Neoclassical
Cashion & Moore Family Cemetery,McAuley Rd @ Davidson-Concord Rd,Davidson,,35.4452738,-80.781185,historic,NC,Cemetery
Park Avenue Mill Village,423 Park Ave,Pineville,,35.0822159,-80.8948255,historic,NC,Mill Village
Stratton House,911 W Fourth St Ext,Charlotte,,35.2326927,-80.8538442,historic,NC,Land
Dinkins House & Lodge,2400 Summerlake Rd,Charlotte,,35.127448,-80.796785,historic,NC,Federal
Dilworth Airplane Bungalow,2144 Park Rd,Charlotte,,35.2007068,-80.8525038,historic,NC,Airplane Bungalow
Philanthropic Hall (Davidson College Campus),216 N Main St,Davidson,,35.500364,-80.8469609,historic,NC,Greek Revival
Mt. Carmel Baptist Church,412 Campus St,Charlotte,,35.2462266,-80.8580601,historic,NC,Gothic Revival
Cooper Log House,5621 Mt Olive Church Rd,Charlotte,,35.204005,-80.973831,historic,NC,Log
Little Rock A.M.E. Zion Church,401 N Myers St,Charlotte,,35.2237953,-80.8328051,historic,NC,Neoclassical
Shotgun House B,715 E Seventh St,Charlotte,,35.2243129,-80.833624,historic,NC,Shotgun
Biddleville Cemetery,Cemetery St & French St,Charlotte,,35.248364,-80.859752,historic,NC,Graveyard/Cemetery
Park Avenue Mill Village,420 Park Ave,Pineville,,35.0824277,-80.8943825,historic,NC,Mill Village
McCausland Building-Thacker's Restaurant,221 S Tryon St,Charlotte,,35.2259534,-80.8446717,historic,NC,Commercial
Ranson House,412 S Old Statesville Rd,Huntersville,,35.4051924,-80.8419739,historic,NC,Colonial Revival
Highland Park Mill No. 3,2901 N Davidson St,Charlotte,,35.2461366,-80.809316,historic,NC,Vernacular
Sherrill-Robbins House,19726 Zion Ave,Cornelius,,35.4785748,-80.8554009,historic,NC,Queen Anne
Bryant Park,1701 W Morehead St,Charlotte,,35.227481,-80.87057,historic,NC,Rustic Revival
Reynolds-Gourmajenko House,715 Providence Rd,Charlotte,,35.2002745,-80.8246734,historic,NC,Tuscan Revival
Beaver Dam House,19600 Davidson-Concord Rd,Davidson,,35.475572,-80.817654,historic,NC,Log (altered)
Providence Women's Club Community House (land),9735 Community House Rd,Charlotte,,35.036843,-80.8278094,historic,NC,Land
Atherton Cotton Mills,2108 South Blvd,Charlotte,,35.2076899,-80.8617784,historic,NC,Cotton Mill
Phillips House and Morris Barn,131 W Charles St,Matthews,,35.1175369,-80.7227194,historic,NC,Craftsman Style Bungalow
Roseland Cemetery,10252 Monroe Rd,Matthews,,35.1327939,-80.73721,historic,NC,Cemetery
Pineville Commercial Block,314 Main St,Pineville,,35.085808,-80.8906073,historic,NC,Commercial
Seaboard Air Line Railroad Station,945 N College St,Charlotte,,35.2340722,-80.8327835,historic,NC,Classical Revival
Bethesda Schoolhouse,10520 Arthur Davis Rd,Huntersville,,35.3647178,-80.8193799,historic,NC,Vernacular
Charlotte's Woman's Club,1001 E Morehead St,Charlotte,,35.2130419,-80.8433794,historic,NC,Regency Revival
Excelsior Club,921 Beatties Ford Rd,Charlotte,,35.2519153,-80.8564819,historic,NC,Art Moderne
Edgewood Farmhouse,11132 Eastfield Rd,Huntersville,,35.36889,-80.809684,historic,NC,Federal
Myers Park Streetcar Waiting Station,101 Queens Rd,Charlotte,,35.211348,-80.826729,historic,NC,Bungalow
Siloam School,10008 John Adams Rd,Charlotte,,35.3360105,-80.7386453,historic,NC,Rural Vernacular
American Legion Memorial Stadium,310 N Kings Dr,Charlotte,,35.219053,-80.8292151,historic,NC,Art Deco
Overcarsh House,326 W Eighth St,Charlotte,,35.2328047,-80.8414441,historic,NC,Queen Anne
Textile Mill Supply Company Building,1300 S Mint St,Charlotte,,35.2213133,-80.8577911,historic,NC,Mill Building
Mt. Zion Lutheran Church,1605 Luther St,Charlotte,,35.2099686,-80.8310858,historic,NC,Gothic Revival
Wing Haven ,240 Ridgewood Ave,Charlotte,,35.1792177,-80.8414766,historic,NC,Colonial Revival
Young-Morrison House,224 W Tenth St,Charlotte,,35.2336269,-80.838102,historic,NC,Vernacular
Charlotte Fire Station # 5,224 Wesley Heights Way,Charlotte,,35.2371433,-80.8613408,historic,NC,Spanish Eclectic
Pineville Commercial Block,322 Main St,Pineville,,35.085945,-80.890772,historic,NC,Commercial
Poplar Apartments,301 W Tenth St,Charlotte,,35.2334882,-80.839098,historic,NC,Jacobethan Revival
Rowland-Clay House,606 E Charles St,Matthews,,35.1125845,-80.7148365,historic,NC,Craftsman
Alpha Cotton Mill,220 Alpha Mill Ln,Charlotte,,35.2314364,-80.8313432,historic,NC,Cotton Mill
R.F. Outen Pottery,430 Jefferson St,Matthews,,35.1151023,-80.7290208,historic,NC,Workshop/Pottery
Sandifer House,12601 Moore's Chapel Rd,Charlotte,,35.255603,-80.999925,historic,NC,Vernacular
Gluyas House,7314 Mt Holly-Huntersville Rd,Huntersville,,35.4036369,-80.8446044,historic,NC,Vernacular
First Associate Reformed Presbyterian Church,721 N Tryon St,Charlotte,,35.2327343,-80.8361786,historic,NC,Gothic Revival
Pineville Commercial Block (including interior),330 Main St,Pineville,,35.0859853,-80.8910422,historic,NC,Commercial
Eumenean Hall (Davidson College Campus),405 N Main St,Davidson,,35.502236,-80.847517,historic,NC,Greek Revival
Charlotte Water Works/Vest Station,820 Beatties Ford Rd,Charlotte,,35.2498786,-80.8564326,historic,NC,Art Deco
Elmwood/Pinewood Cemetery,700 W Sixth St,Charlotte,,35.234098,-80.847333,historic,NC,Cemetery
McEwen-Moore Farmhouse,2035 Moore Rd,Matthews,,35.116343,-80.693063,historic,NC,19th Century Vernacular
Edgewood Farmhouse,11124 Eastfield Rd,Huntersville,,35.369376,-80.810606,historic,NC,Federal
McAuley Road Farmland,16040 McAuley Rd,Huntersville,,35.434133,-80.778691,historic,NC,Farmland
Dr. Elmer H. Garinger High School,1100 Eastway Dr,Charlotte,,35.2409597,-80.7819839,historic,NC,Modernist School
Defiance Sock Mills,520 Elliot St,Charlotte,,35.2306548,-80.8578432,historic,NC,Mill
Park Avenue Mill Village,422 Park Ave,Pineville,,35.0825063,-80.894577,historic,NC,Mill Village
Armour-Adams House,626 N Main St,Davidson,,35.5059468,-80.8443253,historic,NC,Folk Victorian
Oak Lawn,12510 Oak Park Dr,Huntersville,,35.3959468,-80.8756992,historic,NC,Federal
White Oak,7729 Hood Rd,Charlotte,,35.248561,-80.6909639,historic,NC,Federal
Dr. Whitley Building,4311 Hillside Dr,Charlotte,,35.1790088,-80.8464208,historic,NC,Vernacular
Settler's Cemetery,200 W Fifth St,Charlotte,,35.229648,-80.843079,historic,NC,Cemetery
East Ave Tabernacle A.R.P. Church (former),926 Elizabeth Ave,Charlotte,,35.2193755,-80.8340161,historic,NC,Neoclassical